NORAD_CAT_ID,OBJECT_NAME,OBJECT_TYPE,EPOCH,MEAN_MOTION,ECCENTRICITY,INCLINATION,RA_OF_ASC_NODE,ARG_OF_PERICENTER,MEAN_ANOMALY,BSTAR,MEAN_MOTION_DOT,MEAN_MOTION_DDOT,TLE_LINE0,TLE_LINE1,TLE_LINE2,SEMIMAJOR_AXIS,PERIOD,APOGEE,PERIGEE,DECAYED
56480.0,STARLINK-6214,PAYLOAD,2024-04-01 11:18:54,14.98335061,0.0002387,70.0007,107.6572,262.2528,97.836,5.5196e-05,5.66e-06,0.0,0 STARLINK-6214,1 56480U 23064AJ  24092.47146653  .00000566  00000-0  55196-4 0  9998,2 56480  70.0007 107.6572 0002387 262.2528  97.8360 14.98335061 50169,6950.177,96.107,573.701,570.383,0.0
56480.0,STARLINK-6214,PAYLOAD,2024-04-01 17:43:25,14.98381798,0.0002431,70.0005,106.9833,269.9537,90.1344,-0.00058772,-7.108e-05,0.0,0 STARLINK-6214,1 56480U 23064AJ  24092.73848866 -.00007108  00000-0 -58772-3 0  9995,2 56480  70.0005 106.9833 0002431 269.9537  90.1344 14.98381798 50204,6950.033,96.104,573.587,570.208,0.0
56480.0,STARLINK-6214,PAYLOAD,2024-04-02 03:20:14,14.98338386,0.0002293,69.9986,105.9715,277.9628,82.1271,5.9958e-05,6.23e-06,0.0,0 STARLINK-6214,1 56480U 23064AJ  24093.13906197  .00000623  00000-0  59958-4 0  9993,2 56480  69.9986 105.9715 0002293 277.9628  82.1271 14.98338386 50264,6950.167,96.106,573.626,570.438,0.0
56480.0,STARLINK-6214,PAYLOAD,2024-04-02 09:44:47,14.98333769,0.0002136,69.9993,105.3005,255.3737,104.7185,-0.00019842,-2.46e-05,0.0,0 STARLINK-6214,1 56480U 23064AJ  24093.40611081 -.00002460  00000-0 -19842-3 0  9998,2 56480  69.9993 105.3005 0002136 255.3737 104.7185 14.98333769 50305,6950.181,96.107,573.531,570.562,0.0
56480.0,STARLINK-6214,PAYLOAD,2024-04-02 17:45:28,14.98327442,0.0002922,69.9983,104.4564,272.9704,87.1121,-4.4097e-05,-6.19e-06,0.0,0 STARLINK-6214,1 56480U 23064AJ  24093.73991078 -.00000619  00000-0 -44097-4 0  9996,2 56480  69.9983 104.4564 0002922 272.9704  87.1121 14.98327442 49994,6950.201,96.107,574.097,570.035,0.0
56480.0,STARLINK-6214,PAYLOAD,2024-04-03 09:46:48,14.98327258,0.0002942,69.9983,102.7732,273.0806,87.0016,-5.4603e-05,-7.44e-06,0.0,0 STARLINK-6214,1 56480U 23064AJ  24094.40751156 -.00000744  00000-0 -54603-4 0  9995,2 56480  69.9983 102.7732 0002942 273.0806  87.0016 14.98327258 50459,6950.201,96.107,574.111,570.022,0.0
56480.0,STARLINK-6214,PAYLOAD,2024-04-04 09:48:49,14.98326315,0.0003073,69.9981,100.2475,274.4245,85.6563,5.2924e-05,5.38e-06,0.0,0 STARLINK-6214,1 56480U 23064AJ  24095.40890948  .00000538  00000-0  52924-4 0  9992,2 56480  69.9981 100.2475 0003073 274.4245  85.6563 14.98326315 50603,6950.204,96.107,574.205,569.933,0.0
56480.0,STARLINK-6214,PAYLOAD,2024-04-05 09:50:50,14.9832785,0.0003075,69.9982,97.7227,274.5162,85.5646,5.2013e-05,5.28e-06,0.0,0 STARLINK-6214,1 56480U 23064AJ  24096.41031036  .00000528  00000-0  52013-4 0  9997,2 56480  69.9982  97.7227 0003075 274.5162  85.5646 14.98327850 50752,6950.2,96.107,574.202,569.927,0.0
56480.0,STARLINK-6214,PAYLOAD,2024-04-05 17:51:31,14.98329575,0.0003064,69.9983,96.881,274.4666,85.6143,4.4229e-05,4.35e-06,0.0,0 STARLINK-6214,1 56480U 23064AJ  24096.74410963  .00000435  00000-0  44229-4 0  9990,2 56480  69.9983  96.8810 0003064 274.4666  85.6143 14.98329575 50442,6950.194,96.107,574.189,569.93,0.0
56480.0,STARLINK-6214,PAYLOAD,2024-04-06 03:28:18,14.9833913,0.0002829,69.9978,95.8704,272.2552,87.8283,0.00016211,1.842e-05,0.0,0 STARLINK-6214,1 56480U 23064AJ  24097.14465815  .00001842  00000-0  16211-3 0  9993,2 56480  69.9978  95.8704 0002829 272.2552  87.8283 14.98339130 50868,6950.165,96.106,573.996,570.063,0.0
56480.0,STARLINK-6214,PAYLOAD,2024-04-06 09:52:49,14.98347502,0.0003031,69.9984,95.1976,275.4683,84.613,0.0001982,2.274e-05,0.0,0 STARLINK-6214,1 56480U 23064AJ  24097.41168955  .00002274  00000-0  19820-3 0  9997,2 56480  69.9984  95.1976 0003031 275.4683  84.6130 14.98347502 50908,6950.139,96.106,574.11,569.897,0.0
56480.0,STARLINK-6214,PAYLOAD,2024-04-06 22:41:55,14.98334883,0.0001849,70.0013,93.8532,277.0637,83.0312,0.0001222,1.366e-05,0.0,0 STARLINK-6214,1 56480U 23064AJ  24097.94577815  .00001366  00000-0  12220-3 0  9992,2 56480  70.0013  93.8532 0001849 277.0637  83.0312 14.98334883 50621,6950.178,96.107,573.328,570.758,0.0
56480.0,STARLINK-6214,PAYLOAD,2024-04-07 09:54:52,14.98325489,0.0002769,69.9988,92.6728,267.7672,92.317,-5.7594e-05,-7.8e-06,0.0,0 STARLINK-6214,1 56480U 23064AJ  24098.41310750 -.00000780  00000-0 -57594-4 0  9993,2 56480  69.9988  92.6728 0002769 267.7672  92.3170 14.98325489 50694,6950.207,96.107,573.996,570.147,0.0
56480.0,STARLINK-6214,PAYLOAD,2024-04-07 22:43:56,14.98338244,0.000268,69.999,91.3256,273.3556,86.7297,-0.00024589,-3.026e-05,0.0,0 STARLINK-6214,1 56480U 23064AJ  24098.94718580 -.00003026  00000-0 -24589-3 0  9997,2 56480  69.9990  91.3256 0002680 273.3556  86.7297 14.98338244 50774,6950.167,96.106,573.895,570.17,0.0
56480.0,STARLINK-6214,PAYLOAD,2024-04-08 03:32:21,14.98332727,0.0002984,69.9986,90.8208,272.1162,87.9655,-0.00017342,-2.162e-05,0.0,0 STARLINK-6214,1 56480U 23064AJ  24099.14746550 -.00002162  00000-0 -17342-3 0  9997,2 56480  69.9986  90.8208 0002984 272.1162  87.9655 14.98332727 51162,6950.184,96.107,574.123,569.976,0.0
56480.0,STARLINK-6214,PAYLOAD,2024-04-08 09:56:52,14.98356462,0.0002385,69.9992,90.1481,263.5468,96.542,-0.00059852,-7.232e-05,0.0,0 STARLINK-6214,1 56480U 23064AJ  24099.41449990 -.00007232  00000-0 -59852-3 0  9990,2 56480  69.9992  90.1481 0002385 263.5468  96.5420 14.98356462 51206,6950.111,96.105,573.634,570.318,0.0
56480.0,STARLINK-6214,PAYLOAD,2024-04-08 16:21:25,14.98334387,0.0002733,69.9996,89.4743,273.7552,86.3294,-0.00013874,-1.748e-05,0.0,0 STARLINK-6214,1 56480U 23064AJ  24099.68154332 -.00001748  00000-0 -13874-3 0  9992,2 56480  69.9996  89.4743 0002733 273.7552  86.3294 14.98334387 51248,6950.179,96.107,573.944,570.145,0.0
56480.0,STARLINK-6214,PAYLOAD,2024-04-09 00:22:05,14.98323786,0.0003001,69.9986,88.6324,270.6413,89.4402,7.658e-05,8.21e-06,0.0,0 STARLINK-6214,1 56480U 23064AJ  24100.01534386  .00000821  00000-0  76580-4 0  9996,2 56480  69.9986  88.6324 0003001 270.6413  89.4402 14.98323786 50935,6950.212,96.107,574.163,569.991,0.0
56480.0,STARLINK-6214,PAYLOAD,2024-04-09 09:58:54,14.98320522,0.0002964,69.9986,87.6225,269.7339,90.348,0.00017213,1.961e-05,0.0,0 STARLINK-6214,1 56480U 23064AJ  24100.41590532  .00001961  00000-0  17213-3 0  9998,2 56480  69.9986  87.6225 0002964 269.7339  90.3480 14.98320522 51356,6950.222,96.108,574.147,570.027,0.0
56480.0,STARLINK-6214,PAYLOAD,2024-04-09 16:23:26,14.98335609,0.0003086,69.9987,86.9489,271.1028,88.9778,-0.00013973,-1.76e-05,0.0,0 STARLINK-6214,1 56480U 23064AJ  24100.68294307 -.00001760  00000-0 -13973-3 0  9996,2 56480  69.9987  86.9489 0003086 271.1028  88.9778 14.98335609 51398,6950.176,96.107,574.185,569.896,0.0
56480.0,STARLINK-6214,PAYLOAD,2024-04-10 08:24:47,14.98326741,0.0002926,69.9988,85.2658,269.4448,90.6375,5.3197e-05,5.42e-06,0.0,0 STARLINK-6214,1 56480U 23064AJ  24101.35054647  .00000542  00000-0  53197-4 0  9990,2 56480  69.9988  85.2658 0002926 269.4448  90.6375 14.98326741 51139,6950.203,96.107,574.102,570.034,0.0
56480.0,STARLINK-6214,PAYLOAD,2024-04-10 16:25:27,14.98326557,0.0002968,69.9987,84.4239,270.1888,89.8931,2.6924e-05,2.28e-06,0.0,0 STARLINK-6214,1 56480U 23064AJ  24101.68434771  .00000228  00000-0  26924-4 0  9995,2 56480  69.9987  84.4239 0002968 270.1888  89.8931 14.98326557 51545,6950.204,96.107,574.131,570.006,0.0
56480.0,STARLINK-6214,PAYLOAD,2024-04-10 22:50:00,14.9832661,0.0002949,69.9987,83.7506,269.925,90.1571,1.0278e-07,-9.2e-07,0.0,0 STARLINK-6214,1 56480U 23064AJ  24101.95138899 -.00000092  00000-0  10278-6 0  9994,2 56480  69.9987  83.7506 0002949 269.9250  90.1571 14.98326610 51222,6950.203,96.107,574.118,570.019,0.0
56480.0,STARLINK-6214,PAYLOAD,2024-04-11 08:26:48,14.98328285,0.000295,69.9988,82.7408,270.4426,89.6395,1.059e-05,3.3e-07,0.0,0 STARLINK-6214,1 56480U 23064AJ  24102.35194839  .00000033  00000-0  10590-4 0  9994,2 56480  69.9988  82.7408 0002950 270.4426  89.6395 14.98328285 51280,6950.198,96.107,574.114,570.013,0.0
56480.0,STARLINK-6214,PAYLOAD,2024-04-11 16:27:28,14.98329009,0.0002959,69.9989,81.8992,270.6035,89.4785,2.9146e-05,2.55e-06,0.0,0 STARLINK-6214,1 56480U 23064AJ  24102.68574780  .00000255  00000-0  29146-4 0  9990,2 56480  69.9989  81.8992 0002959 270.6035  89.4785 14.98329009 51697,6950.196,96.107,574.118,570.004,0.0
56480.0,STARLINK-6214,PAYLOAD,2024-04-12 08:28:48,14.98331161,0.0002929,69.9991,80.2159,270.5264,89.556,0.00010286,1.135e-05,0.0,0 STARLINK-6214,1 56480U 23064AJ  24103.35334458  .00001135  00000-0  10286-3 0  9993,2 56480  69.9991  80.2159 0002929 270.5264  89.5560 14.98331161 51434,6950.189,96.107,574.09,570.019,0.0
56480.0,STARLINK-6214,PAYLOAD,2024-04-12 22:54:01,14.98330221,0.0002918,69.9992,78.7009,270.8042,89.2782,5.6698e-05,5.84e-06,0.0,0 STARLINK-6214,1 56480U 23064AJ  24103.95418574  .00000584  00000-0  56698-4 0  9996,2 56480  69.9992  78.7009 0002918 270.8042  89.2782 14.98330221 51525,6950.192,96.107,574.085,570.029,0.0
56480.0,STARLINK-6214,PAYLOAD,2024-04-13 05:18:33,14.98333914,0.0002718,69.9997,78.0288,262.0449,98.0401,2.7055e-05,2.3e-06,0.0,0 STARLINK-6214,1 56480U 23064AJ  24104.22122387  .00000230  00000-0  27055-4 0  9994,2 56480  69.9997  78.0288 0002718 262.0449  98.0401 14.98333914 51926,6950.181,96.107,573.935,570.157,0.0
56480.0,STARLINK-6214,PAYLOAD,2024-04-13 08:30:49,14.9833229,0.0002787,69.9997,77.6919,263.7584,96.3257,6.1256e-05,6.38e-06,0.0,0 STARLINK-6214,1 56480U 23064AJ  24104.35474376  .00000638  00000-0  61256-4 0  9999,2 56480  69.9997  77.6919 0002787 263.7584  96.3257 14.98332290 51584,6950.186,96.107,573.988,570.114,0.0
56480.0,STARLINK-6214,PAYLOAD,2024-04-14 08:32:51,14.98329889,0.0002291,70.0009,75.1673,267.5215,92.5681,4.2546e-05,4.15e-06,0.0,0 STARLINK-6214,1 56480U 23064AJ  24105.35614696  .00000415  00000-0  42546-4 0  9995,2 56480  70.0009  75.1673 0002291 267.5215  92.5681 14.98329889 52090,6950.193,96.107,573.651,570.466,0.0
